SES-1                   
1 36516U 10016A   23127.59169558 -.00000102  00000+0  00000+0 0  9994
2 36516   0.0365  59.8834 0002729 349.3624 287.9426  1.00272661 47740
ASTRA 3B                
1 36581U 10021A   23127.57827140  .00000150  00000+0  00000+0 0  9990
2 36581   0.0846  61.6796 0002986 345.6906  49.4913  1.00274303 47489
COMSATBW-2              
1 36582U 10021B   23128.06646340  .00000100  00000+0  00000+0 0  9992
2 36582   0.0061  45.8995 0002838  20.3638 196.4826  1.00274122 47596
BEIDOU-2 G3             
1 36590U 10024A   23128.09216017 -.00000125  00000+0  00000+0 0  9999
2 36590   1.9392  53.3232 0010789 347.6012 297.5377  1.00273551 47381
BADR-5                  
1 36592U 10025A   23128.09146639  .00000156  00000+0  00000+0 0  9997
2 36592   0.0454 111.5519 0003806 337.0592 195.9725  1.00269906 47506
COMS 1                  
1 36744U 10032A   23127.87618819 -.00000332  00000+0  00000+0 0  9990
2 36744   1.8866  89.2706 0001044 320.3630 259.4035  1.00270987 47253
ARABSAT-5A              
1 36745U 10032B   23128.08591200  .00000165  00000+0  00000+0 0  9992
2 36745   0.0752  57.3606 0004942 359.4169 230.2956  1.00273311 47235
ECHOSTAR 15             
1 36792U 10034A   23128.02202094 -.00000270  00000+0  00000+0 0  9998
2 36792   0.0188  25.5774 0002224  11.8765 134.4349  1.00272804 47007
BEIDOU-2 IGSO-1         
1 36828U 10036A   23127.57823611 -.00000054  00000+0  00000+0 0  9993
2 36828  54.2076 173.2710 0035608 192.6775 174.2558  1.00257353 46832
NILESAT 201             
1 36830U 10037A   23127.27827271 -.00000044  00000+0  00000+0 0  9999
2 36830   0.0570 121.4819 0003390 304.6335 251.9308  1.00271759 46964
RASCOM-QAF 1R           
1 36831U 10037B   23128.08451961  .00000030  00000+0  00000+0 0  9993
2 36831   0.0377 107.7310 0005208 297.8267 213.4082  1.00272692 46891
AEHF-1 (USA 214)        
1 36868U 10039A   23128.08451961  .00000036  00000+0  00000+0 0  9991
2 36868   5.3502  82.5041 0005775   5.0213 172.5278  1.00271628 47047
QZS-1 (MICHIBIKI-1)     
1 37158U 10045A   23127.87618819 -.00000060  00000+0  00000+0 0  9992
2 37158  42.6854 128.9246 0760781 270.3900 280.3997  1.00286504 46326
XM-5                    
1 37185U 10053A   23127.57486687 -.00000010  00000+0  00000+0 0  9999
2 37185   0.0212 280.5264 0000753 317.6425  78.7524  1.00270367 46044
BSAT-3B                 
1 37207U 10056B   23128.00604806 -.00000339  00000+0  00000+0 0  9995
2 37207   0.0402 350.2681 0003088  20.7556 326.5940  1.00270875 45880
BEIDOU-2 G4             
1 37210U 10057A   23127.68243832 -.00000099  00000+0  00000+0 0  9994
2 37210   0.9322  52.4263 0000808 100.6222 117.9164  1.00272491 45882
SKYTERRA 1              
1 37218U 10061A   23127.59201350 -.00000105  00000+0  00000+0 0  9994
2 37218   2.8952  41.7767 0004082  14.4905 280.7087  1.00271467 45793
ZHONGXING-20A           
1 37234U 10064A   23127.87063164 -.00000057  00000+0  00000+0 0  9991
2 37234   4.3023 102.8896 0021485 235.6340 130.6010  0.98417146 45639
HYLAS 1                 
1 37237U 10065A   23128.09146639  .00000103  00000+0  00000+0 0  9990
2 37237   2.7389  86.6020 0002213 326.0407 219.7583  1.00273056 45610
INTELSAT 17 (IS-17)     
1 37238U 10065B   23128.04563073  .00000010  00000+0  00000+0 0  9998
2 37238   0.0116 233.8605 0002137 179.5301 254.6399  1.00270530 45521
BEIDOU-2 IGSO-2         
1 37256U 10068A   23127.96538955 -.00000207  00000+0  00000+0 0  9991
2 37256  49.6282 285.7440 0025042 200.0313 195.5101  1.00264766 45405
EUTELSAT KA-SAT 9A      
1 37258U 10069A   23128.08417240  .00000074  00000+0  00000+0 0  9992
2 37258   0.0716 300.3107 0004995 166.4990 158.1622  1.00276595 45422
HISPASAT 30W-5          
1 37264U 10070A   23127.08660486 -.00000202  00000+0  00000+0 0  9996
2 37264   0.0593  98.4479 0004382 338.8064 148.6137  1.00272264 41785
KOREASAT 6              
1 37265U 10070B   23128.00604806 -.00000350  00000+0  00000+0 0  9998
2 37265   0.0347 130.0881 0001755 310.2087 263.4675  1.00272429 45299
BEIDOU-2 IGSO-3         
1 37384U 11013A   23126.68174442 -.00000198  00000+0  00000+0 0  9998
2 37384  60.7654  51.0728 0022205 185.1492 340.5388  1.00269603 44263
INTELSAT NEW DAWN       
1 37392U 11016A   23127.57757698  .00000168  00000+0  00000+0 0  9995
2 37392   0.0332 121.1070 0001124 328.0333  16.7702  1.00273293 41898
YAHSAT 1A               
1 37393U 11016B   23127.88104764  .00000113  00000+0  00000+0 0  9990
2 37393   0.0127 291.9188 0002497 161.1800 142.0275  1.00269478 44167
SBIRS GEO-1 (USA 230)   
1 37481U 11019A   23127.87549313  .00000008  00000+0  00000+0 0  9996
2 37481   2.2933  38.5518 0001745   5.2690 202.5044  1.00272208 43942
TELSTAR 14R             
1 37602U 11021A   23127.54910553 -.00000267  00000+0  00000+0 0  9994
2 37602   0.0072  31.4937 0002357 354.0663 334.2468  1.00271204 44432
GSAT-8                  
1 37605U 11022A   23126.99354786  .00000099  00000+0  00000+0 0  9998
2 37605   0.0589  89.5818 0003826 221.0478 326.7374  1.00271510 41810
ST-2                    
1 37606U 11022B   23128.01715959 -.00000200  00000+0  00000+0 0  9992
2 37606   0.0156 280.5830 0001866 140.9201 258.2804  1.00272935 43858
CHINASAT 10 (ZX 10)     
1 37677U 11026A   23127.77757499 -.00000340  00000+0  00000+0 0  9996
2 37677   0.0302 281.0589 0001834 231.1906 103.5352  1.00274850 43607
TIANLIAN 1-02           
1 37737U 11032A   23127.71785524 -.00000037  00000+0  00000+0 0  9997
2 37737   2.4085  72.4547 0085503   0.5985 217.6969  1.00271698 43321
GSAT-12                 
1 37746U 11034A   23127.68764549 -.00000253  00000+0  00000+0 0  9999
2 37746   2.3314  91.4034 0001665  77.3156  95.6896  0.98862889 32095
SES-3                   
1 37748U 11035A   23127.98243894 -.00000090  00000+0  00000+0 0  9999
2 37748   0.0372  43.9503 0002748  13.6784  58.6015  1.00271080 43301
KAZSAT-2                
1 37749U 11035B   23126.78992296 -.00000183  00000+0  00000+0 0  9997
2 37749   0.0309 276.0604 0000242  34.2916 284.9265  1.00270205 41987
BEIDOU-2 IGSO-4         
1 37763U 11038A   23127.60257894  .00000043  00000+0  00000+0 0  9990
2 37763  54.4831 175.7937 0109392 229.2661 129.9057  1.00257190 43256
ASTRA 1N                
1 37775U 11041A   23128.09146639  .00000131  00000+0  00000+0 0  9993
2 37775   0.1011  66.4043 0005886 339.9668 231.4334  1.00273581 43002
BSAT-3C (JCSAT-110R)    
1 37776U 11041B   23128.00604806 -.00000339  00000+0  00000+0 0  9991
2 37776   0.0622  83.1634 0000229 243.1500  11.4277  1.00271223 43125
PAKSAT-1R               
1 37779U 11042A   23128.04007897  .00000165  00000+0  00000+0 0  9992
2 37779   0.0621 100.1940 0004738 332.1572 205.6206  1.00269888 42889
CHINASAT 1A (ZX 1A)     
1 37804U 11047A   23128.08451961 -.00000035  00000+0  00000+0 0  9992
2 37804   0.7763  93.0984 0004027 295.5137 226.4192  1.00080598 42671
SES-2                   
1 37809U 11049A   23127.46773926 -.00000183  00000+0  00000+0 0  9992
2 37809   0.0664  86.0430 0002782 325.3894 255.0072  1.00270021 42593
ARABSAT-5C              
1 37810U 11049B   23128.09146639  .00000134  00000+0  00000+0 0  9994
2 37810   0.0579  20.3166 0002801 100.6074 157.6511  1.00271374 42512
EUTELSAT 7 WEST A       
1 37816U 11051A   23127.27827271 -.00000046  00000+0  00000+0 0  9993
2 37816   0.0800  41.1254 0003858 106.7635 169.8622  1.00271926 42495
QUETZSAT 1              
1 37826U 11054A   23128.02740444 -.00000230  00000+0  00000+0 0  9992
2 37826   0.0269  28.9855 0002472   6.8673 122.6270  1.00270967 42702
INTELSAT 18 (IS-18)     
1 37834U 11056A   23127.29641203  .00000066  00000+0  00000+0 0  9990
2 37834   0.0171   2.0015 0002040  39.0264 110.5588  1.00269815 42415
EUTELSAT 16A            
1 37836U 11057A   23128.09146639  .00000115  00000+0  00000+0 0  9990
2 37836   0.0709   7.5640 0005069  42.1208 224.8977  1.00270985 42393
VIASAT-1                
1 37843U 11059A   23127.62757678 -.00000011  00000+0  00000+0 0  9995
2 37843   0.0136 271.2277 0002544 143.7227 281.0890  1.00271826 42872
ASIASAT 7               
1 37933U 11069A   23127.24407426 -.00000320  00000+0  00000+0 0  9990
2 37933   0.0225 162.5039 0001875 194.3387  61.3698  1.00270957 42064
BEIDOU-2 IGSO-5         
1 37948U 11073A   23128.18701781 -.00000152  00000+0  00000+0 0  9999
2 37948  49.7489 285.3995 0086652 218.5198 243.7479  1.00259935 42013
LUCH-5A                 
1 37951U 11074B   23128.11577098 -.00000036  00000+0  00000+0 0  9990
2 37951   5.8415  91.7139 0004300 330.1968  12.3366  1.00271133 41797
NIGCOMSAT 1R            
1 38014U 11077A   23127.41577090  .00000158  00000+0  00000+0 0  9992
2 38014   0.0849  91.3811 0002181 258.6757  67.1188  1.00269569 41558
FENGYUN 2F              
1 38049U 12002A   23128.17713125 -.00000347  00000+0  00000+0 0  9995
2 38049   4.5901  77.0059 0002278  44.9696 280.0437  1.00266324 41496
WGS F4 (USA 233)        
1 38070U 12003A   23127.16091056 -.00000201  00000+0  00000+0 0  9999
2 38070   0.0140 268.7386 0000265 176.3843 285.9667  1.00269122 32731
SES-4                   
1 38087U 12007A   23127.19424194 -.00000154  00000+0  00000+0 0  9994
2 38087   0.0193  62.0451 0002228 347.1802 223.4840  1.00271658 40836
BEIDOU-2 G5             
1 38091U 12008A   23126.06785506  .00000071  00000+0  00000+0 0  9999
2 38091   1.4340  65.3006 0005419 270.1057 331.5468  1.00274878 41064
MUOS-1                  
1 38093U 12009A   23127.59201326 -.00000114  00000+0  00000+0 0  9993
2 38093   3.3648  39.3313 0059348   0.3736 298.6294  1.00272915 41045
INTELSAT 22 (IS-22)     
1 38098U 12011A   23127.75466191 -.00000047  00000+0  00000+0 0  9997
2 38098   0.0107 142.3732 0002239 269.8578 156.8823  1.00272815 40420
APSTAR 7                
1 38107U 12013A   23127.69910380 -.00000089  00000+0  00000+0 0  9993
2 38107   0.0066 292.4715 0002869 122.7398 138.2442  1.00271261 40413
